OBJECT_NAME,OBJECT_ID,EPOCH,MEAN_MOTION,ECCENTRICITY,INCLINATION,RA_OF_ASC_NODE,ARG_OF_PERICENTER,MEAN_ANOMALY,EPHEMERIS_TYPE,CLASSIFICATION_TYPE,NORAD_CAT_ID,ELEMENT_SET_NO,REV_AT_EPOCH,BSTAR,MEAN_MOTION_DOT,MEAN_MOTION_DDOT
ONEWEB-0313,2021-075AA,2026-06-08T00:05:06.127296,13.17647931,.0002018,87.9136,7.7068,86.9991,273.1372,0,U,49099,999,23238,-.18878E-5,.12E-6,0
ONEWEB-0314,2021-075AB,2026-06-08T02:55:25.091616,13.17648655,.0002165,87.9150,7.6544,94.1700,265.9679,0,U,49100,999,23237,-.14509E-4,.7E-7,0
ONEWEB-0315,2021-075AC,2026-06-08T01:26:28.388256,13.12444193,.0002073,87.8951,352.4600,82.8635,277.2729,0,U,49101,999,23397,.15558E-2,.572E-5,0
ONEWEB-0316,2021-075AD,2026-06-08T01:17:14.451072,13.18686053,.0001936,87.9159,337.2741,90.6959,269.4395,0,U,49102,999,23600,-.17531E-3,-.56E-6,0
ONEWEB-0317,2021-075AE,2026-06-08T01:31:21.255744,13.12443214,.0001228,87.8950,352.4828,106.1694,253.9570,0,U,49103,999,23399,.12685E-2,.469E-5,0
ONEWEB-0318,2021-075AF,2026-06-08T01:12:22.795776,13.18685905,.0002039,87.9167,337.2755,87.1867,272.9498,0,U,49104,999,23596,.96257E-4,.51E-6,0
ONEWEB-0319,2021-075AG,2026-06-08T03:17:16.590048,13.17648433,.0002348,87.9138,7.6683,80.0158,280.1239,0,U,49105,999,23241,.57865E-4,.35E-6,0
ONEWEB-0323,2021-075AH,2026-06-08T01:04:30.749376,13.12444531,.0002376,87.8950,352.4679,86.3087,273.8313,0,U,49106,999,23335,.99109E-4,.48E-6,0
ONEWEB-0329,2021-075AJ,2026-06-08T03:29:25.601280,13.17647874,.0002004,87.9141,7.6680,89.2345,270.9016,0,U,49107,999,23239,-.11871E-3,-.33E-6,0
ONEWEB-0330,2021-075AK,2026-06-08T02:14:18.872736,13.17648845,.0001935,87.9142,7.6982,94.0000,266.1353,0,U,49108,999,23242,.26192E-3,.115E-5,0
ONEWEB-0292,2021-083A,2026-06-08T04:14:18.100896,13.13469528,.0001997,87.8939,322.0339,91.4394,268.6964,0,U,49186,999,22974,-.92367E-3,-.325E-5,0
ONEWEB-0303,2021-083B,2026-06-08T01:07:31.759104,13.18686192,.0002005,87.9161,337.2753,89.3763,270.7599,0,U,49187,999,22877,.19223E-3,.89E-6,0
ONEWEB-0306,2021-083C,2026-06-08T00:52:57.362592,13.18686926,.0001657,87.9168,337.2649,95.3883,264.7438,0,U,49188,999,22881,-.14278E-3,-.43E-6,0
ONEWEB-0307,2021-083D,2026-06-08T04:05:46.534272,13.13469286,.0001937,87.8949,322.0315,94.4262,265.7089,0,U,49189,999,22974,-.76508E-3,-.267E-5,0
ONEWEB-0320,2021-083E,2026-06-08T01:22:04.621152,13.18685148,.000181,87.9157,337.2800,91.5055,268.6285,0,U,49190,999,22877,-.21206E-4,.5E-7,0
ONEWEB-0321,2021-083F,2026-06-07T21:11:28.209696,13.20771597,.0001703,87.9190,276.2894,104.8488,255.2834,0,U,49191,999,23560,-.65366E-5,.1E-6,0
ONEWEB-0322,2021-083G,2026-06-08T03:59:40.595712,13.13469626,.000138,87.8946,322.0323,91.7307,268.3980,0,U,49192,999,22973,-.7672E-3,-.267E-5,0
ONEWEB-0324,2021-083H,2026-06-08T00:43:13.308096,13.18684223,.0001887,87.9169,337.2716,97.0180,263.1167,0,U,49193,999,22879,.55012E-5,.15E-6,0
ONEWEB-0325,2021-083J,2026-06-07T22:58:49.633824,13.18685140,.0001839,87.9160,337.2953,88.7039,271.4303,0,U,49194,999,22879,.48617E-4,.32E-6,0
ONEWEB-0326,2021-083K,2026-06-08T01:10:08.427360,13.18684811,.0002075,87.9167,337.2740,86.5098,273.6271,0,U,49195,999,22879,.2909E-4,.24E-6,0
ONEWEB-0327,2021-083L,2026-06-08T01:09:44.089344,13.18687365,.0002098,87.9159,337.2790,81.4471,278.6899,0,U,49196,999,22881,-.9416E-4,-.24E-6,0
ONEWEB-0328,2021-083M,2026-06-08T03:45:03.106080,13.13469025,.0001878,87.8958,322.0069,98.6636,261.4706,0,U,49197,999,22971,-.13921E-3,-.38E-6,0
ONEWEB-0331,2021-083N,2026-06-08T01:00:14.494752,13.18685635,.000217,87.9168,337.2691,88.7313,271.4067,0,U,49198,999,22880,-.20919E-3,-.7E-6,0
ONEWEB-0333,2021-083P,2026-06-08T03:37:44.239008,13.13469158,.0001796,87.8946,322.0351,92.3199,267.8136,0,U,49199,999,22972,.20539E-3,.88E-6,0
ONEWEB-0334,2021-083Q,2026-06-07T17:58:43.941216,13.20772694,.0000998,87.9188,276.3281,107.2974,252.8269,0,U,49200,999,23554,.23456E-3,.108E-5,0
ONEWEB-0335,2021-083R,2026-06-08T03:30:26.115840,13.13469859,.0002003,87.8948,322.0330,93.2859,266.8499,0,U,49201,999,22973,.54671E-3,.212E-5,0
ONEWEB-0336,2021-083S,2026-06-07T21:19:53.948640,13.13469873,.0002258,87.8946,322.0802,95.7055,264.4332,0,U,49202,999,22969,.31326E-3,.127E-5,0
ONEWEB-0337,2021-083T,2026-06-07T23:24:01.868832,13.13470025,.0001976,87.8944,322.0692,98.5886,261.5467,0,U,49203,999,22970,.71083E-3,.272E-5,0
ONEWEB-0338,2021-083U,2026-06-07T17:21:08.541792,13.20770323,.0001615,87.9180,276.3359,100.8575,259.2740,0,U,49204,999,23556,.10426E-3,.55E-6,0
ONEWEB-0339,2021-083V,2026-06-07T21:46:42.872160,13.13469705,.000152,87.8944,322.0748,98.2083,261.9219,0,U,49205,999,22967,.10312E-2,.389E-5,0
ONEWEB-0340,2021-083W,2026-06-08T00:40:48.856800,13.18685233,.0002001,87.9168,337.2776,91.4700,268.6661,0,U,49206,999,22876,.4606E-5,.15E-6,0
