ONEWEB-0313             
1 49099U 21075AA  26159.00354314  .00000012  00000+0 -18878-5 0  9999
2 49099  87.9136   7.7068 0002018  86.9991 273.1372 13.17647931232383
ONEWEB-0314             
1 49100U 21075AB  26159.12181819  .00000007  00000+0 -14509-4 0  9993
2 49100  87.9150   7.6544 0002165  94.1700 265.9679 13.17648655232374
ONEWEB-0315             
1 49101U 21075AC  26159.06005079  .00000572  00000+0  15558-2 0  9999
2 49101  87.8951 352.4600 0002073  82.8635 277.2729 13.12444193233971
ONEWEB-0316             
1 49102U 21075AD  26159.05363948 -.00000056  00000+0 -17531-3 0  9994
2 49102  87.9159 337.2741 0001936  90.6959 269.4395 13.18686053236001
ONEWEB-0317             
1 49103U 21075AE  26159.06344046  .00000469  00000+0  12685-2 0  9994
2 49103  87.8950 352.4828 0001228 106.1694 253.9570 13.12443214233990
ONEWEB-0318             
1 49104U 21075AF  26159.05026384  .00000051  00000+0  96257-4 0  9992
2 49104  87.9167 337.2755 0002039  87.1867 272.9498 13.18685905235963
ONEWEB-0319             
1 49105U 21075AG  26159.13699757  .00000035  00000+0  57865-4 0  9996
2 49105  87.9138   7.6683 0002348  80.0158 280.1239 13.17648433232413
ONEWEB-0323             
1 49106U 21075AH  26159.04480034  .00000048  00000+0  99109-4 0  9994
2 49106  87.8950 352.4679 0002376  86.3087 273.8313 13.12444531233356
ONEWEB-0329             
1 49107U 21075AJ  26159.14543520 -.00000033  00000+0 -11871-3 0  9991
2 49107  87.9141   7.6680 0002004  89.2345 270.9016 13.17647874232399
ONEWEB-0330             
1 49108U 21075AK  26159.09327399  .00000115  00000+0  26192-3 0  9991
2 49108  87.9142   7.6982 0001935  94.0000 266.1353 13.17648845232424
ONEWEB-0292             
1 49186U 21083A   26159.17659839 -.00000325  00000+0 -92367-3 0  9994
2 49186  87.8939 322.0339 0001997  91.4394 268.6964 13.13469528229749
ONEWEB-0303             
1 49187U 21083B   26159.04689536  .00000089  00000+0  19223-3 0  9993
2 49187  87.9161 337.2753 0002005  89.3763 270.7599 13.18686192228776
ONEWEB-0306             
1 49188U 21083C   26159.03677503 -.00000043  00000+0 -14278-3 0  9991
2 49188  87.9168 337.2649 0001657  95.3883 264.7438 13.18686926228815
ONEWEB-0307             
1 49189U 21083D   26159.17067748 -.00000267  00000+0 -76508-3 0  9993
2 49189  87.8949 322.0315 0001937  94.4262 265.7089 13.13469286229745
ONEWEB-0320             
1 49190U 21083E   26159.05699793  .00000005  00000+0 -21206-4 0  9998
2 49190  87.9157 337.2800 0001810  91.5055 268.6285 13.18685148228778
ONEWEB-0321             
1 49191U 21083F   26158.88296539  .00000010  00000+0 -65366-5 0  9992
2 49191  87.9190 276.2894 0001703 104.8488 255.2834 13.20771597235609
ONEWEB-0322             
1 49192U 21083G   26159.16644208 -.00000267  00000+0 -76720-3 0  9994
2 49192  87.8946 322.0323 0001380  91.7307 268.3980 13.13469626229733
ONEWEB-0324             
1 49193U 21083H   26159.03001514  .00000015  00000+0  55012-5 0  9990
2 49193  87.9169 337.2716 0001887  97.0180 263.1167 13.18684223228798
ONEWEB-0325             
1 49194U 21083J   26158.95751891  .00000032  00000+0  48617-4 0  9992
2 49194  87.9160 337.2953 0001839  88.7039 271.4303 13.18685140228793
ONEWEB-0326             
1 49195U 21083K   26159.04870865  .00000024  00000+0  29090-4 0  9992
2 49195  87.9167 337.2740 0002075  86.5098 273.6271 13.18684811228791
ONEWEB-0327             
1 49196U 21083L   26159.04842696 -.00000024  00000+0 -94160-4 0  9996
2 49196  87.9159 337.2790 0002098  81.4471 278.6899 13.18687365228813
ONEWEB-0328             
1 49197U 21083M   26159.15628595 -.00000038  00000+0 -13921-3 0  9999
2 49197  87.8958 322.0069 0001878  98.6636 261.4706 13.13469025229712
ONEWEB-0331             
1 49198U 21083N   26159.04183443 -.00000070  00000+0 -20919-3 0  9997
2 49198  87.9168 337.2691 0002170  88.7313 271.4067 13.18685635228806
ONEWEB-0333             
1 49199U 21083P   26159.15120647  .00000088  00000+0  20539-3 0  9992
2 49199  87.8946 322.0351 0001796  92.3199 267.8136 13.13469158229724
ONEWEB-0334             
1 49200U 21083Q   26158.74911969  .00000108  00000+0  23456-3 0  9998
2 49200  87.9188 276.3281 0000998 107.2974 252.8269 13.20772694235547
ONEWEB-0335             
1 49201U 21083R   26159.14613560  .00000212  00000+0  54671-3 0  9999
2 49201  87.8948 322.0330 0002003  93.2859 266.8499 13.13469859229732
ONEWEB-0336             
1 49202U 21083S   26158.88881885  .00000127  00000+0  31326-3 0  9994
2 49202  87.8946 322.0802 0002258  95.7055 264.4332 13.13469873229693
ONEWEB-0337             
1 49203U 21083T   26158.97502163  .00000272  00000+0  71083-3 0  9999
2 49203  87.8944 322.0692 0001976  98.5886 261.5467 13.13470025229708
ONEWEB-0338             
1 49204U 21083U   26158.72301553  .00000055  00000+0  10426-3 0  9996
2 49204  87.9180 276.3359 0001615 100.8575 259.2740 13.20770323235566
ONEWEB-0339             
1 49205U 21083V   26158.90744065  .00000389  00000+0  10312-2 0  9999
2 49205  87.8944 322.0748 0001520  98.2083 261.9219 13.13469705229671
ONEWEB-0340             
1 49206U 21083W   26159.02834325  .00000015  00000+0  46060-5 0  9991
2 49206  87.9168 337.2776 0002001  91.4700 268.6661 13.18685233228761
